[{"OBJECT_NAME":"ONEWEB-0368","OBJECT_ID":"2021-090R","EPOCH":"2026-03-09T16:01:15.612384","MEAN_MOTION":13.20771385,"ECCENTRICITY":0.00010811,"INCLINATION":87.9161,"RA_OF_ASC_NODE":294.3317,"ARG_OF_PERICENTER":110.464,"MEAN_ANOMALY":249.661,"EPHEMERIS_TYPE":0,"CLASSIFICATION_TYPE":"U","NORAD_CAT_ID":49294,"ELEMENT_SET_NO":999,"REV_AT_EPOCH":21784,"BSTAR":-0.00057418285,"MEAN_MOTION_DOT":-2.2e-6,"MEAN_MOTION_DDOT":0},{"OBJECT_NAME":"FENGYUN 1C DEB","OBJECT_ID":"1999-025AQS","EPOCH":"2026-03-09T01:28:31.050336","MEAN_MOTION":13.67055719,"ECCENTRICITY":0.02345904,"INCLINATION":99.5212,"RA_OF_ASC_NODE":113.2013,"ARG_OF_PERICENTER":48.622,"MEAN_ANOMALY":313.4838,"EPHEMERIS_TYPE":0,"CLASSIFICATION_TYPE":"U","NORAD_CAT_ID":30684,"ELEMENT_SET_NO":999,"REV_AT_EPOCH":94808,"BSTAR":0.0014376814,"MEAN_MOTION_DOT":1.412e-5,"MEAN_MOTION_DDOT":0}]
